[{"OBJECT_NAME":"SAPPHIRE","OBJECT_ID":"2013-009C","EPOCH":"2026-02-01T21:54:38.575872","MEAN_MOTION":14.35191398,"ECCENTRICITY":0.00101717,"INCLINATION":98.4183,"RA_OF_ASC_NODE":215.6043,"ARG_OF_PERICENTER":294.2177,"MEAN_ANOMALY":65.7945,"EPHEMERIS_TYPE":0,"CLASSIFICATION_TYPE":"U","NORAD_CAT_ID":39088,"ELEMENT_SET_NO":999,"REV_AT_EPOCH":67717,"BSTAR":7.8510836e-5,"MEAN_MOTION_DOT":1.82e-6,"MEAN_MOTION_DDOT":0},{"OBJECT_NAME":"PRAETORIAN SDA_602","OBJECT_ID":"2025-203A","EPOCH":"2026-01-31T15:23:10.210560","MEAN_MOTION":13.84599351,"ECCENTRICITY":0.00062409,"INCLINATION":81.3051,"RA_OF_ASC_NODE":137.2596,"ARG_OF_PERICENTER":195.0007,"MEAN_ANOMALY":165.0965,"EPHEMERIS_TYPE":0,"CLASSIFICATION_TYPE":"U","NORAD_CAT_ID":65565,"ELEMENT_SET_NO":999,"REV_AT_EPOCH":1980,"BSTAR":7.3232633e-5,"MEAN_MOTION_DOT":9.4e-7,"MEAN_MOTION_DDOT":0},{"OBJECT_NAME":"PRAETORIAN SDA_603","OBJECT_ID":"2025-203B","EPOCH":"2026-01-31T15:17:09.443040","MEAN_MOTION":13.85311036,"ECCENTRICITY":0.00102236,"INCLINATION":81.3054,"RA_OF_ASC_NODE":137.108,"ARG_OF_PERICENTER":198.2316,"MEAN_ANOMALY":161.8477,"EPHEMERIS_TYPE":0,"CLASSIFICATION_TYPE":"U","NORAD_CAT_ID":65566,"ELEMENT_SET_NO":999,"REV_AT_EPOCH":1981,"BSTAR":0.00012364423,"MEAN_MOTION_DOT":1.52e-6,"MEAN_MOTION_DDOT":0},{"OBJECT_NAME":"PRAETORIAN SDA_604","OBJECT_ID":"2025-203C","EPOCH":"2026-01-31T15:29:09.800448","MEAN_MOTION":13.84551627,"ECCENTRICITY":0.00064347,"INCLINATION":81.3072,"RA_OF_ASC_NODE":137.3049,"ARG_OF_PERICENTER":198.7811,"MEAN_ANOMALY":161.3109,"EPHEMERIS_TYPE":0,"CLASSIFICATION_TYPE":"U","NORAD_CAT_ID":65567,"ELEMENT_SET_NO":999,"REV_AT_EPOCH":1980,"BSTAR":6.6629738e-5,"MEAN_MOTION_DOT":8.7e-7,"MEAN_MOTION_DDOT":0},{"OBJECT_NAME":"PRAETORIAN SDA_605","OBJECT_ID":"2025-203D","EPOCH":"2026-02-01T21:11:01.466304","MEAN_MOTION":13.85078874,"ECCENTRICITY":0.00090824,"INCLINATION":81.3037,"RA_OF_ASC_NODE":135.9667,"ARG_OF_PERICENTER":192.093,"MEAN_ANOMALY":168.001,"EPHEMERIS_TYPE":0,"CLASSIFICATION_TYPE":"U","NORAD_CAT_ID":65568,"ELEMENT_SET_NO":999,"REV_AT_EPOCH":1998,"BSTAR":0.00077894456,"MEAN_MOTION_DOT":8.94e-6,"MEAN_MOTION_DDOT":0},{"OBJECT_NAME":"PRAETORIAN SDA_606","OBJECT_ID":"2025-203E","EPOCH":"2026-01-31T10:00:10.351872","MEAN_MOTION":13.8465151,"ECCENTRICITY":0.00068119,"INCLINATION":81.3072,"RA_OF_ASC_NODE":137.4873,"ARG_OF_PERICENTER":197.2001,"MEAN_ANOMALY":162.8926,"EPHEMERIS_TYPE":0,"CLASSIFICATION_TYPE":"U","NORAD_CAT_ID":65569,"ELEMENT_SET_NO":999,"REV_AT_EPOCH":1977,"BSTAR":7.5146903e-5,"MEAN_MOTION_DOT":9.6e-7,"MEAN_MOTION_DDOT":0},{"OBJECT_NAME":"PRAETORIAN SDA_607","OBJECT_ID":"2025-203F","EPOCH":"2026-01-31T17:20:30.384960","MEAN_MOTION":13.85197579,"ECCENTRICITY":0.0009495,"INCLINATION":81.3058,"RA_OF_ASC_NODE":137.065,"ARG_OF_PERICENTER":196.1895,"MEAN_ANOMALY":163.8961,"EPHEMERIS_TYPE":0,"CLASSIFICATION_TYPE":"U","NORAD_CAT_ID":65570,"ELEMENT_SET_NO":999,"REV_AT_EPOCH":1982,"BSTAR":6.5323102e-5,"MEAN_MOTION_DOT":8.6e-7,"MEAN_MOTION_DDOT":0},{"OBJECT_NAME":"PRAETORIAN SDA_608","OBJECT_ID":"2025-203G","EPOCH":"2026-02-01T17:35:51.216288","MEAN_MOTION":13.84490777,"ECCENTRICITY":0.00062876,"INCLINATION":81.3021,"RA_OF_ASC_NODE":136.2263,"ARG_OF_PERICENTER":197.6738,"MEAN_ANOMALY":162.4201,"EPHEMERIS_TYPE":0,"CLASSIFICATION_TYPE":"U","NORAD_CAT_ID":65571,"ELEMENT_SET_NO":999,"REV_AT_EPOCH":1995,"BSTAR":0.00010993858,"MEAN_MOTION_DOT":1.35e-6,"MEAN_MOTION_DDOT":0},{"OBJECT_NAME":"PRAETORIAN SDA_609","OBJECT_ID":"2025-203H","EPOCH":"2026-01-31T09:47:56.430528","MEAN_MOTION":13.8476163,"ECCENTRICITY":0.00072699,"INCLINATION":81.3065,"RA_OF_ASC_NODE":137.4681,"ARG_OF_PERICENTER":195.3946,"MEAN_ANOMALY":164.6991,"EPHEMERIS_TYPE":0,"CLASSIFICATION_TYPE":"U","NORAD_CAT_ID":65572,"ELEMENT_SET_NO":999,"REV_AT_EPOCH":1977,"BSTAR":2.8214625e-5,"MEAN_MOTION_DOT":4.4e-7,"MEAN_MOTION_DDOT":0},{"OBJECT_NAME":"PRAETORIAN SDA_610","OBJECT_ID":"2025-203J","EPOCH":"2026-02-01T19:03:05.396544","MEAN_MOTION":13.84606708,"ECCENTRICITY":0.00067741,"INCLINATION":81.3018,"RA_OF_ASC_NODE":136.1449,"ARG_OF_PERICENTER":193.9784,"MEAN_ANOMALY":166.1186,"EPHEMERIS_TYPE":0,"CLASSIFICATION_TYPE":"U","NORAD_CAT_ID":65573,"ELEMENT_SET_NO":999,"REV_AT_EPOCH":1996,"BSTAR":-0.00020519553,"MEAN_MOTION_DOT":-2.18e-6,"MEAN_MOTION_DDOT":0},{"OBJECT_NAME":"PRAETORIAN SDA_611","OBJECT_ID":"2025-203K","EPOCH":"2026-02-01T19:29:52.781280","MEAN_MOTION":13.84441157,"ECCENTRICITY":0.0006161,"INCLINATION":81.3027,"RA_OF_ASC_NODE":136.178,"ARG_OF_PERICENTER":201.3711,"MEAN_ANOMALY":158.7189,"EPHEMERIS_TYPE":0,"CLASSIFICATION_TYPE":"U","NORAD_CAT_ID":65574,"ELEMENT_SET_NO":999,"REV_AT_EPOCH":1996,"BSTAR":6.9735845e-5,"MEAN_MOTION_DOT":9.0e-7,"MEAN_MOTION_DDOT":0},{"OBJECT_NAME":"PRAETORIAN SDA_612","OBJECT_ID":"2025-203L","EPOCH":"2026-02-01T17:48:42.593760","MEAN_MOTION":13.85107593,"ECCENTRICITY":0.00094025,"INCLINATION":81.3048,"RA_OF_ASC_NODE":136.1363,"ARG_OF_PERICENTER":194.4702,"MEAN_ANOMALY":165.6187,"EPHEMERIS_TYPE":0,"CLASSIFICATION_TYPE":"U","NORAD_CAT_ID":65575,"ELEMENT_SET_NO":999,"REV_AT_EPOCH":1996,"BSTAR":0.00018384257,"MEAN_MOTION_DOT":2.2e-6,"MEAN_MOTION_DDOT":0},{"OBJECT_NAME":"PRAETORIAN SDA_613","OBJECT_ID":"2025-203M","EPOCH":"2026-02-01T18:50:24.063936","MEAN_MOTION":13.84628906,"ECCENTRICITY":0.0007188,"INCLINATION":81.3031,"RA_OF_ASC_NODE":136.1362,"ARG_OF_PERICENTER":191.5954,"MEAN_ANOMALY":168.5038,"EPHEMERIS_TYPE":0,"CLASSIFICATION_TYPE":"U","NORAD_CAT_ID":65576,"ELEMENT_SET_NO":999,"REV_AT_EPOCH":1996,"BSTAR":0.00020468872,"MEAN_MOTION_DOT":2.42e-6,"MEAN_MOTION_DDOT":0},{"OBJECT_NAME":"PRAETORIAN SDA_614","OBJECT_ID":"2025-203N","EPOCH":"2026-01-31T14:54:49.243392","MEAN_MOTION":13.84808957,"ECCENTRICITY":0.0007348,"INCLINATION":81.3028,"RA_OF_ASC_NODE":137.2179,"ARG_OF_PERICENTER":193.7517,"MEAN_ANOMALY":166.3441,"EPHEMERIS_TYPE":0,"CLASSIFICATION_TYPE":"U","NORAD_CAT_ID":65577,"ELEMENT_SET_NO":999,"REV_AT_EPOCH":1981,"BSTAR":-1.9135286e-5,"MEAN_MOTION_DOT":-1.0e-7,"MEAN_MOTION_DDOT":0},{"OBJECT_NAME":"PRAETORIAN SDA_615","OBJECT_ID":"2025-203P","EPOCH":"2026-02-01T19:13:02.139744","MEAN_MOTION":13.85213464,"ECCENTRICITY":0.00096867,"INCLINATION":81.3035,"RA_OF_ASC_NODE":136.0202,"ARG_OF_PERICENTER":195.1035,"MEAN_ANOMALY":164.9834,"EPHEMERIS_TYPE":0,"CLASSIFICATION_TYPE":"U","NORAD_CAT_ID":65578,"ELEMENT_SET_NO":999,"REV_AT_EPOCH":1997,"BSTAR":0.00061952161,"MEAN_MOTION_DOT":7.15e-6,"MEAN_MOTION_DDOT":0},{"OBJECT_NAME":"PRAETORIAN SDA_616","OBJECT_ID":"2025-203Q","EPOCH":"2026-02-01T15:57:58.851072","MEAN_MOTION":13.84406142,"ECCENTRICITY":0.00060523,"INCLINATION":81.3073,"RA_OF_ASC_NODE":136.3747,"ARG_OF_PERICENTER":199.2364,"MEAN_ANOMALY":160.8565,"EPHEMERIS_TYPE":0,"CLASSIFICATION_TYPE":"U","NORAD_CAT_ID":65579,"ELEMENT_SET_NO":999,"REV_AT_EPOCH":1994,"BSTAR":-6.0037031e-5,"MEAN_MOTION_DOT":-5.5e-7,"MEAN_MOTION_DDOT":0}]
