SAPPHIRE                
1 39088U 13009C   26032.91294648  .00000182  00000+0  78511-4 0  9993
2 39088  98.4183 215.6043 0010171 294.2177  65.7945 14.35191398677174
PRAETORIAN SDA_602      
1 65565U 25203A   26031.64109040  .00000094  00000+0  73233-4 0  9999
2 65565  81.3051 137.2596 0006240 195.0007 165.0965 13.84599351 19802
PRAETORIAN SDA_603      
1 65566U 25203B   26031.63691485  .00000152  00000+0  12364-3 0  9990
2 65566  81.3054 137.1080 0010223 198.2316 161.8477 13.85311036 19813
PRAETORIAN SDA_604      
1 65567U 25203C   26031.64525232  .00000087  00000+0  66630-4 0  9991
2 65567  81.3072 137.3049 0006434 198.7811 161.3109 13.84551627 19802
PRAETORIAN SDA_605      
1 65568U 25203D   26032.88265586  .00000894  00000+0  77894-3 0  9991
2 65568  81.3037 135.9667 0009082 192.0930 168.0010 13.85078874 19988
PRAETORIAN SDA_606      
1 65569U 25203E   26031.41678648  .00000096  00000+0  75147-4 0  9991
2 65569  81.3072 137.4873 0006811 197.2001 162.8926 13.84651510 19775
PRAETORIAN SDA_607      
1 65570U 25203F   26031.72257390  .00000086  00000+0  65323-4 0  9998
2 65570  81.3058 137.0650 0009495 196.1895 163.8961 13.85197579 19827
PRAETORIAN SDA_608      
1 65571U 25203G   26032.73323167  .00000135  00000+0  10994-3 0  9995
2 65571  81.3021 136.2263 0006287 197.6738 162.4201 13.84490777 19958
PRAETORIAN SDA_609      
1 65572U 25203H   26031.40829202  .00000044  00000+0  28215-4 0  9995
2 65572  81.3065 137.4681 0007269 195.3946 164.6991 13.84761630 19770
PRAETORIAN SDA_610      
1 65573U 25203J   26032.79381246 -.00000218  00000+0 -20520-3 0  9995
2 65573  81.3018 136.1449 0006774 193.9784 166.1186 13.84606708 19969
PRAETORIAN SDA_611      
1 65574U 25203K   26032.81241645  .00000090  00000+0  69736-4 0  9996
2 65574  81.3027 136.1780 0006161 201.3711 158.7189 13.84441157 19967
PRAETORIAN SDA_612      
1 65575U 25203L   26032.74215965  .00000220  00000+0  18384-3 0  9992
2 65575  81.3048 136.1363 0009402 194.4702 165.6187 13.85107593 19960
PRAETORIAN SDA_613      
1 65576U 25203M   26032.78500074  .00000242  00000+0  20469-3 0  9996
2 65576  81.3031 136.1362 0007188 191.5954 168.5038 13.84628906 19960
PRAETORIAN SDA_614      
1 65577U 25203N   26031.62140328 -.00000010  00000+0 -19135-4 0  9995
2 65577  81.3028 137.2179 0007348 193.7517 166.3441 13.84808957 19816
PRAETORIAN SDA_615      
1 65578U 25203P   26032.80071921  .00000715  00000+0  61952-3 0  9992
2 65578  81.3035 136.0202 0009686 195.1035 164.9834 13.85213464 19978
PRAETORIAN SDA_616      
1 65579U 25203Q   26032.66526448 -.00000055  00000+0 -60037-4 0  9999
2 65579  81.3073 136.3747 0006052 199.2364 160.8565 13.84406142 19941
